GALAXY 25 (G-25)        
1 24812U 97026A   23143.85497628  .00000050  00000+0  00000+0 0  9996
2 24812   4.5465  80.2130 0013191 352.0504 158.6814  0.99034608 95120
INTELSAT 5 (IS-5)       
1 24916U 97046A   23144.09476227 -.00000061  00000+0  00000+0 0  9995
2 24916   7.9589  58.5904 0002206  11.7141  11.3793  1.00273385 94385
GALAXY 11 (G-11)        
1 26038U 99071A   23144.45302977 -.00000159  00000+0  00000+0 0  9990
2 26038   3.8718  83.8600 0001374  60.7877 167.1211  1.00271824 85853
INTELSAT 9 (IS-9)       
1 26451U 00043A   23143.69328606 -.00000287  00000+0  00000+0 0  9994
2 26451   7.9433  58.7811 0002509   3.0452  18.7835  1.00270363 32915
INTELSAT 1R (IS-1R)     
1 26608U 00072A   23143.73382778 -.00000137  00000+0  00000+0 0  9999
2 26608   5.3224  76.2060 0001108  57.2952 168.8537  1.00270656 30087
INTELSAT 10 (IS-10)     
1 26766U 01019A   23144.09711572  .00000036  00000+0  00000+0 0  9991
2 26766   6.3903  70.3584 0003977 347.6323  36.2065  1.00273997 80706
INTELSAT 901 (IS-901)   
1 26824U 01024A   23144.44077310 -.00000198  00000+0  00000+0 0  9996
2 26824   0.0187  44.3985 0000791  15.5499 313.0234  1.00271375 80362
INTELSAT 902 (IS-902)   
1 26900U 01039A   23143.83667168 -.00000279  00000+0  00000+0 0  9995
2 26900   3.2667  85.1694 0003821 358.1761  48.9468  1.00272299 79468
INTELSAT 904 (IS-904)   
1 27380U 02007A   23143.69738281 -.00000211  00000+0  00000+0 0  9999
2 27380   4.0932  82.2417 0002829 330.8279  49.5241  1.00270446 40538
DIRECTV 5 (TEMPO 1)     
1 27426U 02023A   23143.60969421 -.00000052  00000+0  00000+0 0  9994
2 27426   1.9954  89.1429 0003073 332.3642 288.8277  1.00271185 76886
INTELSAT 905 (IS-905)   
1 27438U 02027A   23143.69842878 -.00000182  00000+0  00000+0 0  9990
2 27438   3.9164  82.9411 0002540 325.9767  59.0730  1.00271718 40133
GALAXY 3C (G-3C)        
1 27445U 02030A   23143.97116256 -.00000149  00000+0  00000+0 0  9990
2 27445   0.8298  90.8861 0000461 105.7304 299.4596  1.00272498 76712
INTELSAT 906 (IS-906)   
1 27513U 02041A   23144.38868847  .00000018  00000+0  00000+0 0  9998
2 27513   2.9393  86.5119 0004372 355.7034   3.5983  1.00273054 75742
GALAXY 12 (G-12)        
1 27715U 03013B   23144.23099719  .00000081  00000+0  00000+0 0  9990
2 27715   4.1271  81.9286 0001299 269.1449 202.2839  1.00197921 73779
GALAXY 23 (G-23)        
1 27854U 03034A   23144.22925262  .00000017  00000+0  00000+0 0  9996
2 27854   0.2998  95.1337 0003046 335.1762 132.8107  1.00270995 77317
GALAXY 13 (HORIZONS-1)  
1 27954U 03044A   23143.78407032  .00000052  00000+0  00000+0 0  9997
2 27954   0.0078 350.3698 0002261  79.4106 326.6134  1.00270829 35334
INTELSAT 10-02          
1 28358U 04022A   23143.98981582 -.00000008  00000+0  00000+0 0  9994
2 28358   0.0408  88.6931 0000516  18.5178 129.4687  1.00268664 69394
XM-3 (RHYTHM)           
1 28626U 05008A   23143.97308019 -.00000202  00000+0  00000+0 0  9990
2 28626   0.0399 144.9088 0000500 105.6029 256.0071  1.00269496 66830
DIRECTV 8               
1 28659U 05019A   23144.23795803  .00000005  00000+0  00000+0 0  9999
2 28659   0.0159 304.9917 0002584 121.6026 141.5944  1.00268791 65954
GALAXY 28 (G-28)        
1 28702U 05022A   23143.70574736 -.00000182  00000+0  00000+0 0  9990
2 28702   0.4022  91.5713 0002354 309.8146   4.7386  1.00271544 40747
GALAXY 14 (G-14)        
1 28790U 05030A   23143.85323299  .00000159  00000+0  00000+0 0  9991
2 28790   2.1285  88.4119 0001323 323.9299 168.9072  1.00272742 65079
GALAXY 15 (G-15)        
1 28884U 05041A   23144.53769830 -.00000195  00000+0  00000+0 0  9999
2 28884   0.6211  83.3933 0012823  96.3088  17.0634  0.98936573 64372
SPACEWAY 2              
1 28903U 05046B   23144.46785535  .00000107  00000+0  00000+0 0  9990
2 28903   2.6901  84.7541 0001273 208.9113 337.6689  1.00271975 64260
GALAXY 16 (G-16)        
1 29236U 06023A   23143.82690924 -.00000124  00000+0  00000+0 0  9992
2 29236   0.0306 117.8188 0002686 308.1809  13.8389  1.00276131 61738
DIRECTV 9S              
1 29494U 06043A   23144.44751535 -.00000109  00000+0  00000+0 0  9998
2 29494   0.0771 278.1607 0002653 149.4775 234.0504  1.00272769 60872
XM-4 (BLUES)            
1 29520U 06049A   23144.40535446 -.00000252  00000+0  00000+0 0  9990
2 29520   0.0026 335.8110 0000458 137.8907 234.9947  1.00272560 60761
GALAXY 17 (G-17)        
1 31307U 07016B   23143.87914326 -.00000202  00000+0  00000+0 0  9994
2 31307   0.1250  95.7443 0001484 337.6461  39.3301  1.00273251 58578
DIRECTV 10              
1 31862U 07032A   23144.44670738 -.00000099  00000+0  00000+0 0  9992
2 31862   0.0042 354.1830 0000097 279.9939  25.6237  1.00271013 58177
SPACEWAY 3              
1 32018U 07036A   23143.97116256 -.00000148  00000+0  00000+0 0  9992
2 32018   1.0922  89.7078 0000482 190.3296 215.9386  1.00271889 57892
INTELSAT 11 (IS-11)     
1 32253U 07044B   23143.83806632 -.00000265  00000+0  00000+0 0  9991
2 32253   0.6576  92.3923 0003040 339.5929  67.8904  1.00270852 57265
HORIZONS-2              
1 32388U 07063B   23143.83196478 -.00000250  00000+0  00000+0 0  9995
2 32388   0.0163 342.2591 0002306  93.7556  30.8707  1.00271958 56580
DIRECTV 11              
1 32729U 08013A   23143.97029091 -.00000122  00000+0  00000+0 0  9999
2 32729   0.0420 108.3144 0000263 115.4763 267.6514  1.00270799 55703
GALAXY 18 (G-18)        
1 32951U 08024A   23144.43392918  .00000029  00000+0  00000+0 0  9996
2 32951   0.0018 347.9284 0002730  71.6248 215.4208  1.00271269 54850
INTELSAT 25 (IS-25)     
1 33153U 08034A   23144.39979984 -.00000219  00000+0  00000+0 0  9993
2 33153   0.0163 335.4454 0002700  94.3518 284.3575  1.00275614 54418
GALAXY 19 (G-19)        
1 33376U 08045A   23144.45102899 -.00000135  00000+0  00000+0 0  9999
2 33376   0.0434  97.0860 0002677 327.9208 242.1487  1.00269109 53608
FM-5                    
1 35493U 09034A   23144.45843219 -.00000196  00000+0  00000+0 0  9995
2 35493   0.0148 296.9236 0001136 298.5537  85.2065  1.00270691 50755
INTELSAT 14 (IS-14)     
1 36097U 09064A   23144.32879313 -.00000270  00000+0  00000+0 0  9992
2 36097   0.0120 307.2097 0002835 126.4821 241.3460  1.00274087 49462
INTELSAT 15 (IS-15)     
1 36106U 09067A   23144.07863678 -.00000182  00000+0  00000+0 0  9997
2 36106   0.0164   2.2584 0002227  41.3793 311.2478  1.00271429 49375
DIRECTV 12              
1 36131U 09075A   23144.44670736 -.00000099  00000+0  00000+0 0  9993
2 36131   0.0364 145.6968 0000406 180.5352 333.6548  1.00270332 49151
INTELSAT 16 (IS-16)     
1 36397U 10006A   23144.46428184 -.00000241  00000+0  00000+0 0  9992
2 36397   0.0194  23.7602 0001811  28.6283 280.3378  1.00273520 48490
XM-5                    
1 37185U 10053A   23143.68038567 -.00000019  00000+0  00000+0 0  9998
2 37185   0.0224 287.3825 0001264 320.5898 122.8032  1.00270620 46249
INTELSAT 17 (IS-17)     
1 37238U 10065B   23144.00315205  .00000002  00000+0  00000+0 0  9995
2 37238   0.0152 266.8664 0002510 155.8752 245.7388  1.00271119 45684
INTELSAT NEW DAWN       
1 37392U 11016A   23144.03313219  .00000159  00000+0  00000+0 0  9992
2 37392   0.0159 267.5934 0000461 141.1108 237.3907  1.00274157 44280
INTELSAT 18 (IS-18)     
1 37834U 11056A   23144.45594362  .00000057  00000+0  00000+0 0  9990
2 37834   0.0097 332.5558 0001823  77.4486 175.9272  1.00273199 42612
INTELSAT 22 (IS-22)     
1 38098U 12011A   23143.86099066 -.00000055  00000+0  00000+0 0  9999
2 38098   0.0067  42.0755 0002421  21.7193 199.4732  1.00271382 40584
INTELSAT 19 (IS-19)     
1 38356U 12030A   23143.80799446 -.00000053  00000+0  00000+0 0  9998
2 38356   0.0097 330.7065 0002882  86.5066 280.8262  1.00273249 39208
INTELSAT 20 (IS-20)     
1 38740U 12043A   23143.98972933 -.00000021  00000+0  00000+0 0  9997
2 38740   0.0043 336.1054 0001410 213.5542 116.4726  1.00270777 39595
INTELSAT 21 (IS-21)     
1 38749U 12045A   23143.97848441 -.00000281  00000+0  00000+0 0  9991
2 38749   0.0120 307.2502 0001686 110.8322 117.4880  1.00269304 39403
INTELSAT 23 (IS-23)     
1 38867U 12057A   23144.44248100 -.00000281  00000+0  00000+0 0  9994
2 38867   0.0201 256.2587 0001269 117.1825 334.6602  1.00278812 38874
FM-6                    
1 39360U 13058A   23143.68021135 -.00000013  00000+0  00000+0 0  9990
2 39360   0.0188 313.1213 0000608 304.2474 112.3803  1.00269644 34829
INTELSAT 30 (IS-30)     
1 40271U 14062A   23144.11162249 -.00000147  00000+0  00000+0 0  9998
2 40271   0.0184 317.6179 0001160 122.8307 106.1273  1.00270618 31531
DIRECTV 14              
1 40333U 14078B   23143.82690924 -.00000122  00000+0  00000+0 0  9990
2 40333   0.0255  42.9495 0000297 247.9425 148.7292  1.00270948 30828
DIRECTV 15              
1 40663U 15026A   23143.68282630 -.00000098  00000+0  00000+0 0  9997
2 40663   0.0444  99.4839 0000501 200.9000  83.6004  1.00268804 29238
SKY MEXICO-1            
1 40664U 15026B   23144.46272906 -.00000231  00000+0  00000+0 0  9999
2 40664   0.0161 319.7782 0001724 102.5348 267.2978  1.00272165 29303
INTELSAT 34 (IS-34)     
1 40874U 15039A   23144.14059090 -.00000282  00000+0  00000+0 0  9994
2 40874   0.0090 318.7531 0000397 351.8403 286.0185  1.00271082 28398
INTELSAT 31 (IS-31)     
1 41581U 16035A   23144.11162250 -.00000147  00000+0  00000+0 0  9997
2 41581   0.0213 264.1874 0001857 334.1048 308.2890  1.00271709 25456
INTELSAT 36 (IS-36)     
1 41747U 16053A   23144.38868847 -.00000021  00000+0  00000+0 0  9996
2 41747   0.0116 349.0018 0001614 354.4187 106.7324  1.00271385 24716
INTELSAT 33E (IS-33E)   
1 41748U 16053B   23143.85863720  .00000052  00000+0  00000+0 0  9996
2 41748   0.0114 313.7633 0001510 132.7963 163.7493  1.00271312 25014
INTELSAT 32E (IS-32E)   
1 41945U 17007B   23143.83806632 -.00000265  00000+0  00000+0 0  9999
2 41945   0.0148 354.4267 0000528 305.3730 199.9012  1.00269866 23009
INTELSAT 35E (IS-35E)   
1 42818U 17041A   23143.98319130 -.00000234  00000+0  00000+0 0  9991
2 42818   0.0186 303.8940 0001398  99.8552 157.0203  1.00273927 21570
INTELSAT 37E (IS-37E)   
1 42950U 17059A   23144.38816786 -.00000137  00000+0  00000+0 0  9993
2 42950   0.0184 311.9949 0002088 112.6472 298.8262  1.00272228 20814
AZERSPACE 2 (IS-38)     
1 43632U 18074A   23144.51855071  .00000140  00000+0  00000+0 0  9997
2 43632   0.0155 331.1329 0001198  94.1939  48.3246  1.00272095 17211
HORIZONS-3E             
1 43633U 18074B   23144.45987083 -.00000027  00000+0  00000+0 0  9995
2 43633   0.0524 138.5233 0001176 148.6325 289.1707  1.00270705 17094
AT&T T-16               
1 44333U 19034A   23143.96994226 -.00000111  00000+0  00000+0 0  9996
2 44333   0.0127 300.4021 0001079 252.7624 296.4609  1.00269050 14390
INTELSAT 39 (IS-39)     
1 44476U 19049B   23144.38868847  .00000037  00000+0  00000+0 0  9992
2 44476   0.0162 308.7472 0000671 318.0293 176.8219  1.00271718 13901
GALAXY 30 (G-30)        
1 46114U 20056C   23143.67838088  .00000040  00000+0  00000+0 0  9992
2 46114   0.0149 358.1985 0001969  67.5276 294.5022  1.00272821 10052
GALAXY 33 (G-33)        
1 54026U 22128A   23143.67681192  .00000082  00000+0  00000+0 0  9993
2 54026   0.0075 341.6744 0001730  72.2837 297.7236  1.00274069  2513
GALAXY 34 (G-34)        
1 54027U 22128B   23143.68885617  .00000062  00000+0  00000+0 0  9991
2 54027   0.0155 324.5392 0003205 120.7410 274.7568  1.00272254  2547
GALAXY 31 (G-31)        
1 54243U 22153A   23144.43471854  .00000017  00000+0  00000+0 0  9997
2 54243   0.0154 300.2458 0002361 352.2712 344.7545  1.00272633  1924
GALAXY 32 (G-32)        
1 54244U 22153B   23143.47011722 -.00000171  00000+0  00000+0 0  9997
2 54244   0.0170 345.9427 0002477  46.0918 287.0315  1.00271419  1902
GALAXY 35 (G-35)        
1 54741U 22170A   23144.13478741 -.00000159  00000+0  00000+0 0  9996
2 54741   0.0100 353.1703 0000750 344.3895 219.3442  1.00272006  1671
GALAXY 36 (G-36)        
1 54742U 22170B   23144.45569080 -.00000181  00000+0  00000+0 0  9994
2 54742   0.0244  71.3899 0002936  11.3013 234.1501  1.00271521  1680
